[{"OBJECT_NAME":"COSMOS 2251 DEB","OBJECT_ID":"1993-036AAV","EPOCH":"2026-03-02T20:07:21.146016","MEAN_MOTION":14.56770381,"ECCENTRICITY":0.0009496,"INCLINATION":74.0198,"RA_OF_ASC_NODE":17.5805,"ARG_OF_PERICENTER":99.5248,"MEAN_ANOMALY":286.5743,"EPHEMERIS_TYPE":0,"CLASSIFICATION_TYPE":"U","NORAD_CAT_ID":34792,"ELEMENT_SET_NO":999,"REV_AT_EPOCH":88816,"BSTAR":0.0012879,"MEAN_MOTION_DOT":5.742e-5,"MEAN_MOTION_DDOT":0},{"OBJECT_NAME":"COSMOS 2251 DEB","OBJECT_ID":"1993-036AAW","EPOCH":"2026-03-02T06:49:30.094176","MEAN_MOTION":14.38789237,"ECCENTRICITY":0.00527829,"INCLINATION":74.0008,"RA_OF_ASC_NODE":103.3945,"ARG_OF_PERICENTER":240.5915,"MEAN_ANOMALY":247.5336,"EPHEMERIS_TYPE":0,"CLASSIFICATION_TYPE":"U","NORAD_CAT_ID":34793,"ELEMENT_SET_NO":999,"REV_AT_EPOCH":88474,"BSTAR":0.00025727775,"MEAN_MOTION_DOT":7.77e-6,"MEAN_MOTION_DDOT":0},{"OBJECT_NAME":"COSMOS 2251 DEB","OBJECT_ID":"1993-036AAZ","EPOCH":"2026-03-02T11:07:58.985760","MEAN_MOTION":14.49202518,"ECCENTRICITY":0.00979131,"INCLINATION":74.0282,"RA_OF_ASC_NODE":66.8064,"ARG_OF_PERICENTER":151.1546,"MEAN_ANOMALY":335.5923,"EPHEMERIS_TYPE":0,"CLASSIFICATION_TYPE":"U","NORAD_CAT_ID":34796,"ELEMENT_SET_NO":999,"REV_AT_EPOCH":89182,"BSTAR":0.00053770829,"MEAN_MOTION_DOT":2.148e-5,"MEAN_MOTION_DDOT":0},{"OBJECT_NAME":"COSMOS 2251 DEB","OBJECT_ID":"1993-036ABA","EPOCH":"2026-03-02T09:04:36.421248","MEAN_MOTION":14.43856474,"ECCENTRICITY":0.00696348,"INCLINATION":73.9786,"RA_OF_ASC_NODE":311.4847,"ARG_OF_PERICENTER":46.0141,"MEAN_ANOMALY":314.6727,"EPHEMERIS_TYPE":0,"CLASSIFICATION_TYPE":"U","NORAD_CAT_ID":34797,"ELEMENT_SET_NO":999,"REV_AT_EPOCH":88564,"BSTAR":0.0016097849,"MEAN_MOTION_DOT":5.627e-5,"MEAN_MOTION_DDOT":0},{"OBJECT_NAME":"COSMOS 2251 DEB","OBJECT_ID":"1993-036ABC","EPOCH":"2026-02-28T21:07:32.601216","MEAN_MOTION":13.50805216,"ECCENTRICITY":0.043644,"INCLINATION":73.9344,"RA_OF_ASC_NODE":7.455,"ARG_OF_PERICENTER":26.3531,"MEAN_ANOMALY":335.9072,"EPHEMERIS_TYPE":0,"CLASSIFICATION_TYPE":"U","NORAD_CAT_ID":34813,"ELEMENT_SET_NO":999,"REV_AT_EPOCH":82710,"BSTAR":0.0051739,"MEAN_MOTION_DOT":6.031e-5,"MEAN_MOTION_DDOT":0},{"OBJECT_NAME":"COSMOS 2251 DEB","OBJECT_ID":"1993-036ABD","EPOCH":"2026-03-02T18:10:09.658272","MEAN_MOTION":14.3729246,"ECCENTRICITY":0.005355,"INCLINATION":73.8958,"RA_OF_ASC_NODE":177.0044,"ARG_OF_PERICENTER":46.1339,"MEAN_ANOMALY":103.9667,"EPHEMERIS_TYPE":0,"CLASSIFICATION_TYPE":"U","NORAD_CAT_ID":34814,"ELEMENT_SET_NO":999,"REV_AT_EPOCH":88482,"BSTAR":0.00079241,"MEAN_MOTION_DOT":2.376e-5,"MEAN_MOTION_DDOT":0},{"OBJECT_NAME":"COSMOS 2251 DEB","OBJECT_ID":"1993-036ABE","EPOCH":"2026-03-02T11:09:42.456672","MEAN_MOTION":14.79610148,"ECCENTRICITY":0.00539054,"INCLINATION":74.0428,"RA_OF_ASC_NODE":85.0974,"ARG_OF_PERICENTER":136.7917,"MEAN_ANOMALY":223.7508,"EPHEMERIS_TYPE":0,"CLASSIFICATION_TYPE":"U","NORAD_CAT_ID":34815,"ELEMENT_SET_NO":999,"REV_AT_EPOCH":89806,"BSTAR":0.00081839776,"MEAN_MOTION_DOT":6.258e-5,"MEAN_MOTION_DDOT":0},{"OBJECT_NAME":"COSMOS 2251 DEB","OBJECT_ID":"1993-036ABF","EPOCH":"2026-03-02T20:24:46.755360","MEAN_MOTION":13.58517798,"ECCENTRICITY":0.0370447,"INCLINATION":73.8901,"RA_OF_ASC_NODE":12.3959,"ARG_OF_PERICENTER":62.3511,"MEAN_ANOMALY":332.9361,"EPHEMERIS_TYPE":0,"CLASSIFICATION_TYPE":"U","NORAD_CAT_ID":34816,"ELEMENT_SET_NO":999,"REV_AT_EPOCH":83871,"BSTAR":0.0012555,"MEAN_MOTION_DOT":1.413e-5,"MEAN_MOTION_DDOT":0},{"OBJECT_NAME":"COSMOS 2251 DEB","OBJECT_ID":"1993-036ABH","EPOCH":"2026-03-02T16:16:14.534400","MEAN_MOTION":14.3708855,"ECCENTRICITY":0.0025149,"INCLINATION":74.0363,"RA_OF_ASC_NODE":149.9462,"ARG_OF_PERICENTER":212.7278,"MEAN_ANOMALY":298.1113,"EPHEMERIS_TYPE":0,"CLASSIFICATION_TYPE":"U","NORAD_CAT_ID":34818,"ELEMENT_SET_NO":999,"REV_AT_EPOCH":88518,"BSTAR":0.00026083,"MEAN_MOTION_DOT":7.51e-6,"MEAN_MOTION_DDOT":0},{"OBJECT_NAME":"COSMOS 2251 DEB","OBJECT_ID":"1993-036ABJ","EPOCH":"2026-03-02T19:14:30.894144","MEAN_MOTION":14.65348892,"ECCENTRICITY":0.0012911,"INCLINATION":74.0209,"RA_OF_ASC_NODE":348.5712,"ARG_OF_PERICENTER":62.9653,"MEAN_ANOMALY":329.1062,"EPHEMERIS_TYPE":0,"CLASSIFICATION_TYPE":"U","NORAD_CAT_ID":34819,"ELEMENT_SET_NO":999,"REV_AT_EPOCH":89401,"BSTAR":0.0015982,"MEAN_MOTION_DOT":8.622e-5,"MEAN_MOTION_DDOT":0},{"OBJECT_NAME":"COSMOS 2251 DEB","OBJECT_ID":"1993-036ABN","EPOCH":"2026-03-02T18:15:38.056896","MEAN_MOTION":14.553659,"ECCENTRICITY":0.0153037,"INCLINATION":74.0422,"RA_OF_ASC_NODE":310.7462,"ARG_OF_PERICENTER":14.454,"MEAN_ANOMALY":346.0925,"EPHEMERIS_TYPE":0,"CLASSIFICATION_TYPE":"U","NORAD_CAT_ID":34823,"ELEMENT_SET_NO":999,"REV_AT_EPOCH":89545,"BSTAR":0.0005481,"MEAN_MOTION_DOT":2.754e-5,"MEAN_MOTION_DDOT":0},{"OBJECT_NAME":"COSMOS 2251 DEB","OBJECT_ID":"1993-036ABP","EPOCH":"2026-03-02T12:20:26.673504","MEAN_MOTION":14.46046421,"ECCENTRICITY":0.0021124,"INCLINATION":74.0271,"RA_OF_ASC_NODE":359.4214,"ARG_OF_PERICENTER":146.4053,"MEAN_ANOMALY":213.8449,"EPHEMERIS_TYPE":0,"CLASSIFICATION_TYPE":"U","NORAD_CAT_ID":34845,"ELEMENT_SET_NO":999,"REV_AT_EPOCH":88619,"BSTAR":0.00032620135,"MEAN_MOTION_DOT":1.14e-5,"MEAN_MOTION_DDOT":0},{"OBJECT_NAME":"COSMOS 2251 DEB","OBJECT_ID":"1993-036ABQ","EPOCH":"2026-03-02T13:54:20.560032","MEAN_MOTION":14.4776967,"ECCENTRICITY":0.0024388,"INCLINATION":74.0293,"RA_OF_ASC_NODE":112.4058,"ARG_OF_PERICENTER":168.7135,"MEAN_ANOMALY":191.4576,"EPHEMERIS_TYPE":0,"CLASSIFICATION_TYPE":"U","NORAD_CAT_ID":34846,"ELEMENT_SET_NO":999,"REV_AT_EPOCH":88559,"BSTAR":0.00065437,"MEAN_MOTION_DOT":2.401e-5,"MEAN_MOTION_DDOT":0},{"OBJECT_NAME":"COSMOS 2251 DEB","OBJECT_ID":"1993-036ABW","EPOCH":"2026-03-01T19:47:10.756320","MEAN_MOTION":14.37073866,"ECCENTRICITY":0.00170975,"INCLINATION":74.0314,"RA_OF_ASC_NODE":117.5212,"ARG_OF_PERICENTER":210.002,"MEAN_ANOMALY":150.0155,"EPHEMERIS_TYPE":0,"CLASSIFICATION_TYPE":"U","NORAD_CAT_ID":34852,"ELEMENT_SET_NO":999,"REV_AT_EPOCH":88670,"BSTAR":0.00011975592,"MEAN_MOTION_DOT":3.3e-6,"MEAN_MOTION_DDOT":0},{"OBJECT_NAME":"COSMOS 2251 DEB","OBJECT_ID":"1993-036ABY","EPOCH":"2026-02-26T05:02:01.124736","MEAN_MOTION":14.7747752,"ECCENTRICITY":0.0062409,"INCLINATION":74.0309,"RA_OF_ASC_NODE":10.5363,"ARG_OF_PERICENTER":103.6269,"MEAN_ANOMALY":257.1866,"EPHEMERIS_TYPE":0,"CLASSIFICATION_TYPE":"U","NORAD_CAT_ID":34854,"ELEMENT_SET_NO":999,"REV_AT_EPOCH":72996,"BSTAR":0.00062722,"MEAN_MOTION_DOT":4.586e-5,"MEAN_MOTION_DDOT":0},{"OBJECT_NAME":"COSMOS 2251 DEB","OBJECT_ID":"1993-036ACA","EPOCH":"2026-03-02T16:13:03.301824","MEAN_MOTION":15.1089983,"ECCENTRICITY":0.0029649,"INCLINATION":73.9928,"RA_OF_ASC_NODE":279.8431,"ARG_OF_PERICENTER":36.4,"MEAN_ANOMALY":27.7172,"EPHEMERIS_TYPE":0,"CLASSIFICATION_TYPE":"U","NORAD_CAT_ID":34856,"ELEMENT_SET_NO":999,"REV_AT_EPOCH":90317,"BSTAR":0.0016521,"MEAN_MOTION_DOT":0.00027877,"MEAN_MOTION_DDOT":0}]
