COSMOS 2251 DEB         
1 34792U 93036AAV 26061.83843919  .00005742  00000+0  12879-2 0  9992
2 34792  74.0198  17.5805 0009496  99.5248 286.5743 14.56770381888165
COSMOS 2251 DEB         
1 34793U 93036AAW 26061.28437609  .00000777  00000+0  25728-3 0  9998
2 34793  74.0008 103.3945 0052782 240.5915 247.5336 14.38789237884745
COSMOS 2251 DEB         
1 34796U 93036AAZ 26061.46387715  .00002148  00000+0  53771-3 0  9996
2 34796  74.0282  66.8064 0097913 151.1546 335.5923 14.49202518891820
COSMOS 2251 DEB         
1 34797U 93036ABA 26061.37819932  .00005627  00000+0  16098-2 0  9993
2 34797  73.9786 311.4847 0069634  46.0141 314.6727 14.43856474885641
COSMOS 2251 DEB         
1 34813U 93036ABC 26059.88023844  .00006031  00000+0  51739-2 0  9995
2 34813  73.9344   7.4550 0436440  26.3531 335.9072 13.50805216827101
COSMOS 2251 DEB         
1 34814U 93036ABD 26061.75705623  .00002376  00000+0  79241-3 0  9994
2 34814  73.8958 177.0044 0053550  46.1339 103.9667 14.37292460884829
COSMOS 2251 DEB         
1 34815U 93036ABE 26061.46507473  .00006258  00000+0  81840-3 0  9997
2 34815  74.0428  85.0974 0053905 136.7917 223.7508 14.79610148898066
COSMOS 2251 DEB         
1 34816U 93036ABF 26061.85054115  .00001413  00000+0  12555-2 0  9995
2 34816  73.8901  12.3959 0370447  62.3511 332.9361 13.58517798838712
COSMOS 2251 DEB         
1 34818U 93036ABH 26061.67794600  .00000751  00000+0  26083-3 0  9993
2 34818  74.0363 149.9462 0025149 212.7278 298.1113 14.37088550885180
COSMOS 2251 DEB         
1 34819U 93036ABJ 26061.80174646  .00008622  00000+0  15982-2 0  9991
2 34819  74.0209 348.5712 0012911  62.9653 329.1062 14.65348892894019
COSMOS 2251 DEB         
1 34823U 93036ABN 26061.76085714  .00002754  00000+0  54810-3 0  9992
2 34823  74.0422 310.7462 0153037  14.4540 346.0925 14.55365900895459
COSMOS 2251 DEB         
1 34845U 93036ABP 26061.51419761  .00001140  00000+0  32620-3 0  9995
2 34845  74.0271 359.4214 0021124 146.4053 213.8449 14.46046421886193
COSMOS 2251 DEB         
1 34846U 93036ABQ 26061.57940463  .00002401  00000+0  65437-3 0  9993
2 34846  74.0293 112.4058 0024388 168.7135 191.4576 14.47769670885598
COSMOS 2251 DEB         
1 34852U 93036ABW 26060.82443005  .00000330  00000+0  11976-3 0  9995
2 34852  74.0314 117.5212 0017097 210.0020 150.0155 14.37073866886702
COSMOS 2251 DEB         
1 34854U 93036ABY 26057.20973524  .00004586  00000+0  62722-3 0  9991
2 34854  74.0309  10.5363 0062409 103.6269 257.1866 14.77477520729967
COSMOS 2251 DEB         
1 34856U 93036ACA 26061.67573266  .00027877  00000+0  16521-2 0  9991
2 34856  73.9928 279.8431 0029649  36.4000  27.7172 15.10899830903173
